{
  "type": "FeatureCollection",
  "features": [
    {
      "type": "Feature",
      "properties": {
        "name": "Lagos CBD",
        "type": "urban",
        "built_up": 70,
        "vacant": 15,
        "roads": 15,
        "description": "Central Business District"
      },
      "geometry": {
        "type": "Point",
        "coordinates": [3.3962, 6.5244]
      }
    },
    {
      "type": "Feature",
      "properties": {
        "name": "Victoria Island",
        "type": "urban",
        "built_up": 65,
        "vacant": 20,
        "roads": 15,
        "description": "Commercial and residential area"
      },
      "geometry": {
        "type": "Point",
        "coordinates": [3.4215, 6.4281]
      }
    },
    {
      "type": "Feature",
      "properties": {
        "name": "Ikeja GRA",
        "type": "urban",
        "built_up": 60,
        "vacant": 25,
        "roads": 15,
        "description": "Government Residential Area"
      },
      "geometry": {
        "type": "Point",
        "coordinates": [3.3494, 6.6018]
      }
    },
    {
      "type": "Feature",
      "properties": {
        "name": "Ogun Farmlands",
        "type": "rural",
        "built_up": 20,
        "vacant": 70,
        "roads": 10,
        "description": "Agricultural zone"
      },
      "geometry": {
        "type": "Point",
        "coordinates": [3.2567, 6.8139]
      }
    },
    {
      "type": "Feature",
      "properties": {
        "name": "Oyo Outskirts",
        "type": "rural",
        "built_up": 25,
        "vacant": 65,
        "roads": 10,
        "description": "Rural settlement area"
      },
      "geometry": {
        "type": "Point",
        "coordinates": [3.9137, 7.8385]
      }
    }
  ]
}