{
"type": "FeatureCollection",
"name": "SPECIAL_PR_PLYG",
"crs": { "type": "name", "properties": { "name": "urn:ogc:def:crs:EPSG::26331" } },
"features": [
{ "type": "Feature", "properties": { "Layer": "ABEOKUTA_SPECIAL_PRIME", "Linetype": null, "EntityHand": "239", "Text": "S", "AREA_DEL": "SPECIAL_PRIME", "polygon": null, "x": 538156.501, "y": 787954.26 }, "geometry": { "type": "MultiPolygon", "coordinates": [ [ [ [ 537544.711, 789325.117 ], [ 537714.802, 789048.062000000150874 ], [ 537821.189, 788960.574 ], [ 537952.916, 788873.626 ], [ 538061.44, 788807.509 ], [ 538185.099, 788736.693 ], [ 538286.145, 788668.263 ], [ 538400.748000000137836, 788606.335 ], [ 538609.025, 788592.678 ], [ 538749.735, 788577.023 ], [ 538921.81900000013411, 788497.349 ], [ 539072.013999999850057, 788330.614 ], [ 539191.562999999849126, 788111.337 ], [ 539337.313, 787863.463 ], [ 539476.044, 787634.274 ], [ 539507.280000000144355, 787579.472999999881722 ], [ 539517.493, 787568.871 ], [ 539805.29, 787398.137 ], [ 539713.716, 787226.167 ], [ 539550.9910000001546, 786985.775000000139698 ], [ 539441.398, 786928.905 ], [ 539403.628, 786928.25400000018999 ], [ 539370.019, 786950.969000000157394 ], [ 539255.37, 787190.374 ], [ 539199.304, 787213.002 ], [ 538982.335, 787123.559000000124797 ], [ 538707.8, 787020.685 ], [ 538707.703, 787026.805 ], [ 538693.879, 786751.141 ], [ 538492.401, 786710.558 ], [ 538442.299, 786707.476 ], [ 538431.728000000119209, 786723.253000000142492 ], [ 538452.264, 786779.684000000124797 ], [ 538460.328, 786873.673 ], [ 538457.238, 786924.794000000110827 ], [ 538335.734, 786925.279 ], [ 538310.912, 786913.277 ], [ 538309.445, 786916.334 ], [ 538218.96100000012666, 786875.722 ], [ 538123.151, 786837.595999999786727 ], [ 538122.163, 786837.092 ], [ 538122.188, 786838.299000000231899 ], [ 538081.094, 786812.272000000113621 ], [ 538074.594, 786810.957 ], [ 538065.328, 786806.718 ], [ 538020.733000000123866, 786784.555 ], [ 538021.05, 786784.278 ], [ 537984.83400000014808, 786895.872 ], [ 537914.514, 787015.825 ], [ 537757.629, 787217.066 ], [ 537614.355, 787401.985 ], [ 537613.044, 787401.53 ], [ 537613.962, 787402.417 ], [ 537612.618, 787401.525000000139698 ], [ 537613.24, 787404.153 ], [ 537613.529, 787402.765000000130385 ], [ 537436.526, 787606.742 ], [ 537401.38, 787580.183 ], [ 537184.206, 787859.31 ], [ 537149.782, 787873.421 ], [ 537091.165, 787885.950999999884516 ], [ 537025.222, 787896.394 ], [ 536952.289, 787902.14 ], [ 536952.198, 788037.922 ], [ 536893.631, 788171.403 ], [ 536796.086, 788285.17 ], [ 536735.925, 788376.664000000106171 ], [ 536699.561, 788542.876 ], [ 536715.311, 788630.549000000115484 ], [ 536746.77, 788660.921 ], [ 536763.519, 788681.527000000118278 ], [ 536841.176, 788762.742 ], [ 536920.037, 788862.83400000014808 ], [ 537165.527, 789063.95 ], [ 537254.25, 789122.869 ], [ 537254.168, 789123.686000000103377 ], [ 537261.723, 789124.17 ], [ 537290.986, 789141.919000000227243 ], [ 537328.209, 789160.741 ], [ 537374.424, 789189.546 ], [ 537417.445, 789226.643 ], [ 537451.57, 789248.137 ], [ 537489.983, 789284.353 ], [ 537544.711, 789325.117 ] ] ] ] } }
]
}
